[{"OBJECT_NAME":"LEMUR-2-STAR-FOX","OBJECT_ID":"2025-009CR","EPOCH":"2026-03-09T19:30:12.149568","MEAN_MOTION":15.00891969,"ECCENTRICITY":0.00025005,"INCLINATION":97.7038,"RA_OF_ASC_NODE":151.2547,"ARG_OF_PERICENTER":152.191,"MEAN_ANOMALY":207.9448,"EPHEMERIS_TYPE":0,"CLASSIFICATION_TYPE":"U","NORAD_CAT_ID":62696,"ELEMENT_SET_NO":999,"REV_AT_EPOCH":6264,"BSTAR":0.000772765,"MEAN_MOTION_DOT":9.785e-5,"MEAN_MOTION_DDOT":0},{"OBJECT_NAME":"STARLINK-36202","OBJECT_ID":"2025-298V","EPOCH":"2026-03-09T22:18:08.038080","MEAN_MOTION":14.99160974,"ECCENTRICITY":0.00024266,"INCLINATION":70.0038,"RA_OF_ASC_NODE":13.8431,"ARG_OF_PERICENTER":236.7757,"MEAN_ANOMALY":123.317,"EPHEMERIS_TYPE":0,"CLASSIFICATION_TYPE":"U","NORAD_CAT_ID":67094,"ELEMENT_SET_NO":999,"REV_AT_EPOCH":1325,"BSTAR":0.00049737229,"MEAN_MOTION_DOT":5.975e-5,"MEAN_MOTION_DDOT":0}]
